1 88150U          19281.96666667  .00000000  00000-0  00000-0 0 00000
2 88150 097.7340 119.9050 0000000 000.0000 217.7690 15.01920000000000
1 88150U          19282.37083333  .00000000  00000-0  00000-0 0 00000
2 88150 097.7330 120.3040 0000000 000.0000 240.2700 15.01920000000000
1 88150U          19282.72847222  .00000000  00000-0  00000-0 0 00000
2 88150 097.7330 120.6560 0000000 000.0000 011.5210 15.01920000000000
1 88150U          19282.91666667  .00000000  00000-0  00000-0 0 00000
2 88150 097.7330 120.8420 0000000 000.0000 307.7710 15.01920000000000
1 88150U          19283.33402778  .00000000  00000-0  00000-0 0 00000
2 88150 097.7320 121.2530 0000000 000.0000 041.5220 15.01920000000000
1 88150U          19283.73541667  .00000000  00000-0  00000-0 0 00000
2 88150 097.7320 121.6490 0000000 000.0000 049.0220 15.01920000000000
1 88150U          19283.92708333  .00000000  00000-0  00000-0 0 00000
2 88150 097.7320 121.8380 0000000 000.0000 004.0220 15.01920000000000
1 88150U          19284.27777778  .00000000  00000-0  00000-0 0 00000
2 88150 097.7310 122.1830 0000000 000.0000 097.7730 15.01920000000000
1 88150U          19284.74027778  .00000000  00000-0  00000-0 0 00000
2 88150 097.7310 122.6390 0000000 000.0000 075.2740 15.01920000000000
1 88150U          19285.02013889  .00000000  00000-0  00000-0 0 00000
2 88150 097.7310 122.9150 0000000 000.0000 146.5240 15.01920000000000
1 88150U          19285.40694444  .00000000  00000-0  00000-0 0 00000
2 88150 097.7300 123.2970 0000000 000.0000 075.2750 15.01920000000000
1 88150U          19285.68958333  .00000000  00000-0  00000-0 0 00000
2 88150 097.7300 123.5750 0000000 000.0000 161.5250 15.01920000000000
1 88150U          19285.96527778  .00000000  00000-0  00000-0 0 00000
2 88150 097.7300 123.8470 0000000 000.0000 210.2760 15.01920000000000
1 88150U          19286.31041667  .00000000  00000-0  00000-0 0 00000
2 88150 097.7290 124.1870 0000000 000.0000 274.0260 15.01920000000000
1 88150U          19286.60972222  .00000000  00000-0  00000-0 0 00000
2 88150 097.7290 124.4820 0000000 000.0000 090.2770 15.01920000000000
1 88150U          19287.00138889  .00000000  00000-0  00000-0 0 00000
2 88150 097.7280 124.8680 0000000 000.0000 045.2770 15.01920000000000
1 88150U          19287.25555556  .00000000  00000-0  00000-0 0 00000
2 88150 097.7280 125.1190 0000000 000.0000 337.7780 15.01920000000000
1 88150U          19287.74652778  .00000000  00000-0  00000-0 0 00000
2 88150 097.7280 125.6030 0000000 000.0000 109.0290 15.01920000000000
1 88150U          19288.06111111  .00000000  00000-0  00000-0 0 00000
2 88150 097.7270 125.9130 0000000 000.0000 007.7790 15.01920000000000
1 88150U          19288.31041667  .00000000  00000-0  00000-0 0 00000
2 88150 097.7270 126.1590 0000000 000.0000 274.0290 15.01920000000000
1 88150U          19288.58541667  .00000000  00000-0  00000-0 0 00000
2 88150 097.7270 126.4300 0000000 000.0000 319.0300 15.01920000000000
1 88150U          19289.04305556  .00000000  00000-0  00000-0 0 00000
2 88150 097.7260 126.8810 0000000 000.0000 270.2810 15.01920000000000
1 88150U          19289.26111111  .00000000  00000-0  00000-0 0 00000
2 88150 097.7260 127.0960 0000000 000.0000 007.7810 15.01920000000000
1 88150U          19289.65069444  .00000000  00000-0  00000-0 0 00000
2 88150 097.7260 127.4800 0000000 000.0000 311.5320 15.01920000000000
1 88150U          19290.05208333  .00000000  00000-0  00000-0 0 00000
2 88150 097.7250 127.8760 0000000 000.0000 319.0320 15.01920000000000
1 88150U          19290.30069444  .00000000  00000-0  00000-0 0 00000
2 88150 097.7250 128.1210 0000000 000.0000 221.5320 15.01920000000000
1 88150U          19290.60902778  .00000000  00000-0  00000-0 0 00000
2 88150 097.7240 128.4250 0000000 000.0000 086.5330 15.01920000000000
1 88150U          19290.99791667  .00000000  00000-0  00000-0 0 00000
2 88150 097.7240 128.8080 0000000 000.0000 026.5340 15.01920000000000
1 88150U          19291.34097222  .00000000  00000-0  00000-0 0 00000
2 88150 097.7240 129.1460 0000000 000.0000 079.0340 15.01920000000000
1 88150U          19291.67777778  .00000000  00000-0  00000-0 0 00000
2 88150 097.7230 129.4780 0000000 000.0000 097.7850 15.01920000000000
1 88150U          19291.92986111  .00000000  00000-0  00000-0 0 00000
2 88150 097.7230 129.7270 0000000 000.0000 019.0350 15.01920000000000
1 88150U          19292.31527778  .00000000  00000-0  00000-0 0 00000
2 88150 097.7220 130.1070 0000000 000.0000 300.2850 15.01920000000000
1 88150U          19292.60902778  .00000000  00000-0  00000-0 0 00000
2 88150 097.7220 130.3960 0000000 000.0000 086.5360 15.01920000000000
1 88150U          19292.95208333  .00000000  00000-0  00000-0 0 00000
2 88150 097.7220 130.7350 0000000 000.0000 139.0360 15.01920000000000
1 88150U          19293.35069444  .00000000  00000-0  00000-0 0 00000
2 88150 097.7210 131.1280 0000000 000.0000 131.5370 15.01920000000000
1 88150U          19293.67430556  .00000000  00000-0  00000-0 0 00000
2 88150 097.7210 131.4470 0000000 000.0000 079.0370 15.01920000000000
1 88150U          19293.96180556  .00000000  00000-0  00000-0 0 00000
2 88150 097.7200 131.7300 0000000 000.0000 191.5380 15.01920000000000
1 88150U          19294.39513889  .00000000  00000-0  00000-0 0 00000
2 88150 097.7200 132.1570 0000000 000.0000 011.5380 15.01920000000000
1 88150U          19294.65208333  .00000000  00000-0  00000-0 0 00000
2 88150 097.7200 132.4100 0000000 000.0000 319.0390 15.01920000000000
1 88150U          19294.96250000  .00000000  00000-0  00000-0 0 00000
2 88150 097.7190 132.7160 0000000 000.0000 195.2890 15.01920000000000
1 88150U          19295.25138889  .00000000  00000-0  00000-0 0 00000
2 88150 097.7190 133.0010 0000000 000.0000 315.2900 15.01920000000000
1 88150U          19295.62569444  .00000000  00000-0  00000-0 0 00000
2 88150 097.7180 133.3700 0000000 000.0000 176.5400 15.01920000000000
1 88150U          19296.07916667  .00000000  00000-0  00000-0 0 00000
2 88150 097.7180 133.8170 0000000 000.0000 105.2910 15.01920000000000
1 88150U          19296.25486111  .00000000  00000-0  00000-0 0 00000
2 88150 097.7170 133.9900 0000000 000.0000 334.0410 15.01920000000000
1 88150U          19296.70763889  .00000000  00000-0  00000-0 0 00000
2 88150 097.7170 134.4370 0000000 000.0000 259.0420 15.01920000000000
1 88150U          19296.94583333  .00000000  00000-0  00000-0 0 00000
2 88150 097.7170 134.6720 0000000 000.0000 105.2920 15.01920000000000
1 88150U          19297.26041667  .00000000  00000-0  00000-0 0 00000
2 88150 097.7160 134.9820 0000000 000.0000 004.0420 15.01920000000000
1 88150U          19297.74305556  .00000000  00000-0  00000-0 0 00000
2 88150 097.7160 135.4580 0000000 000.0000 090.2930 15.01920000000000
1 88150U          19297.98750000  .00000000  00000-0  00000-0 0 00000
2 88150 097.7150 135.6980 0000000 000.0000 330.2930 15.01920000000000
1 88150U          19298.33611111  .00000000  00000-0  00000-0 0 00000
2 88150 097.7150 136.0420 0000000 000.0000 052.7940 15.01920000000000
1 88150U          19298.65277778  .00000000  00000-0  00000-0 0 00000
2 88150 097.7140 136.3540 0000000 000.0000 322.7940 15.01920000000000
1 88150U          19298.92291667  .00000000  00000-0  00000-0 0 00000
2 88150 097.7140 136.6210 0000000 000.0000 341.5450 15.01920000000000
1 88150U          19299.29722222  .00000000  00000-0  00000-0 0 00000
2 88150 097.7130 136.9900 0000000 000.0000 202.7950 15.01920000000000
1 88150U          19299.61458333  .00000000  00000-0  00000-0 0 00000
2 88150 097.7130 137.3020 0000000 000.0000 116.5460 15.01920000000000
1 88150U          19300.02708333  .00000000  00000-0  00000-0 0 00000
2 88150 097.7120 137.7090 0000000 000.0000 184.0460 15.01920000000000
1 88150U          19300.33819444  .00000000  00000-0  00000-0 0 00000
2 88150 097.7120 138.0160 0000000 000.0000 064.0470 15.01920000000000
1 88150U          19300.72083333  .00000000  00000-0  00000-0 0 00000
2 88150 097.7110 138.3930 0000000 000.0000 330.2970 15.01920000000000
1 88150U          19301.04375000  .00000000  00000-0  00000-0 0 00000
2 88150 097.7110 138.7110 0000000 000.0000 274.0470 15.01920000000000
1 88150U          19301.35972222  .00000000  00000-0  00000-0 0 00000
2 88150 097.7110 139.0230 0000000 000.0000 180.2980 15.01920000000000
1 88150U          19301.72291667  .00000000  00000-0  00000-0 0 00000
2 88150 097.7100 139.3810 0000000 000.0000 341.5480 15.01920000000000
1 88150U          19302.06875000  .00000000  00000-0  00000-0 0 00000
2 88150 097.7100 139.7220 0000000 000.0000 049.0490 15.01920000000000
1 88150U          19302.26527778  .00000000  00000-0  00000-0 0 00000
2 88150 097.7090 139.9150 0000000 000.0000 030.2990 15.01920000000000
1 88150U          19302.72430556  .00000000  00000-0  00000-0 0 00000
2 88150 097.7090 140.3680 0000000 000.0000 349.0500 15.01920000000000
1 88150U          19302.94791667  .00000000  00000-0  00000-0 0 00000
2 88150 097.7080 140.5880 0000000 000.0000 116.5500 15.01920000000000
1 88150U          19303.34097222  .00000000  00000-0  00000-0 0 00000
2 88150 097.7080 140.9760 0000000 000.0000 079.0500 15.01920000000000
1 88150U          19303.69513889  .00000000  00000-0  00000-0 0 00000
2 88150 097.7070 141.3250 0000000 000.0000 191.5510 15.01920000000000
1 88150U          19303.95625000  .00000000  00000-0  00000-0 0 00000
2 88150 097.7070 141.5820 0000000 000.0000 161.5510 15.01920000000000
1 88150U          19304.26250000  .00000000  00000-0  00000-0 0 00000
2 88150 097.7060 141.8840 0000000 000.0000 015.3010 15.01920000000000
1 88150U          19304.59791667  .00000000  00000-0  00000-0 0 00000
2 88150 097.7060 142.2150 0000000 000.0000 026.5520 15.01920000000000
1 88150U          19305.03472222  .00000000  00000-0  00000-0 0 00000
2 88150 097.7050 142.6450 0000000 000.0000 225.3020 15.01920000000000
1 88150U          19305.34513889  .00000000  00000-0  00000-0 0 00000
2 88150 097.7050 142.9510 0000000 000.0000 101.5530 15.01920000000000
